STARLINK-31870          
1 59787U 24093F   26183.59824522  .00001418  00000+0  61042-4 0  9991
2 59787  43.0043 279.5752 0001356 269.8640  90.2056 15.27572260120270
STARLINK-31888          
1 59788U 24093G   26183.60852777 -.00001084  00000+0 -29892-4 0  9995
2 59788  43.0007 279.6513 0001379 269.6280  90.4413 15.27568135120275
STARLINK-31863          
1 59789U 24093H   26183.67134124  .00008047  00000+0  30183-3 0  9990
2 59789  43.0002 279.2663 0001446 262.1275  97.9412 15.27556448120286
STARLINK-31873          
1 59790U 24093J   26183.61623713 -.00000744  00000+0 -17511-4 0  9992
2 59790  43.0020 279.7082 0001272 285.3087  74.7624 15.27566753120270
STARLINK-31865          
1 59791U 24093K   26183.62009883 -.00001617  00000+0 -49273-4 0  9990
2 59791  43.0012 279.7356 0000938 288.2095  71.8654 15.27560680120279
STARLINK-31823          
1 59794U 24093N   26183.68931973  .00000739  00000+0  36377-4 0  9996
2 59794  43.0019 279.3938 0001172 262.6633  97.4086 15.27582440120288
STARLINK-31916          
1 59795U 24093P   26183.69318453 -.00001386  00000+0 -40869-4 0  9992
2 59795  43.0024 279.4208 0001028 278.3820  81.6915 15.27569452120282
STARLINK-31907          
1 59797U 24093R   26183.76112742 -.00000084  00000+0  64949-5 0  9994
2 59797  42.9994 279.0732 0002877 265.8641  94.1881 15.27582835120293
STARLINK-31687          
1 59798U 24093S   26183.72144896 -.00003130  00000+0 -10421-3 0  9996
2 59798  43.0054 279.6328 0002925 266.1982  93.8535 15.27579849120288
STARLINK-31810          
1 59799U 24093T   26182.98806134 -.00003066  00000+0 -10195-3 0  9990
2 59799  43.0019 283.5895 0001205 263.4685  96.6030 15.27573701120173
STARLINK-31812          
1 59800U 24093U   26183.69961114 -.00002965  00000+0 -98271-4 0  9991
2 59800  43.0033 279.4686 0001962 263.8023  96.2605 15.27569061120352
STARLINK-31815          
1 59801U 24093V   26183.70346370 -.00001571  00000+0 -47589-4 0  9993
2 59801  43.0022 279.4977 0001189 257.2446 102.8272 15.27570129120284
STARLINK-31814          
1 59802U 24093W   26183.65992999 -.00001416  00000+0 -41971-4 0  9999
2 59802  43.0048 280.0165 0001016 273.6549  86.4187 15.27561424120274
STARLINK-31794          
1 59803U 24093X   26183.64963789 -.00000354  00000+0 -33448-5 0  9995
2 59803  43.0038 279.9552 0001066 271.8323  88.2406 15.27574713120343
STARLINK-31824          
1 59804U 24093Y   26183.71116883 -.00000803  00000+0 -19677-4 0  9995
2 59804  43.0016 279.5564 0001184 256.5592 103.5128 15.27567541120284
2024-094A               
1 59805U 24094A   26184.52461400  .00010129  00000+0  51620-3 0  9998
2 59805  97.3861 254.9125 0006253 133.5674 226.6080 15.16945311117645
2024-094B               
1 59806U 24094B   26184.69308927  .00007194  00000+0  36789-3 0  9998
2 59806  97.3886 255.2991 0006574  80.6754 279.5223 15.16926779117660
2024-094C               
1 59807U 24094C   26184.70691141  .00006966  00000+0  35499-3 0  9997
2 59807  97.3911 255.4945 0004242 138.8708 221.2846 15.17069555117662
2024-094D               
1 59808U 24094D   26184.53940814  .00008792  00000+0  45680-3 0  9995
2 59808  97.3833 254.7058 0002826 211.7888 148.3175 15.16318118117631
2024-092K               
1 59809U 24092K   26183.85411936  .00024221  00000+0  66484-3 0  9996
2 59809  97.6594 317.3407 0007922  97.9636 262.2507 15.37221958117644
2024-095A               
1 59810U 24095A   26184.69443738  .00006357  00000+0  37942-3 0  9996
2 59810  97.5341 263.3636 0001987 203.1755 156.9386 15.11474027116638
STARLINK-31947          
1 59835U 24097A   26183.79781661 -.00000697  00000+0 -15821-4 0  9991
2 59835  43.0016 344.0808 0001091 268.2871  91.7856 15.27568533119527
STARLINK-31929          
1 59836U 24097B   26183.83764896  .00001052  00000+0  47772-4 0  9992
2 59836  43.0034 344.3725 0000809 249.1150 110.9615 15.27553199119522
STARLINK-31927          
1 59837U 24097C   26183.81580778 -.00001616  00000+0 -49245-4 0  9991
2 59837  43.0024 344.2104 0001014 275.3445  84.7291 15.27567316119523
STARLINK-31855          
1 59838U 24097D   26183.79395221  .00013435  00000+0  49684-3 0  9992
2 59838  43.0009 344.0368 0001527 265.5038  94.5639 15.27581335119527
STARLINK-31887          
1 59839U 24097E   26183.84150081  .00001469  00000+0  62880-4 0  9990
2 59839  43.0026 344.4017 0001042 304.4715  55.6038 15.27578511119522
STARLINK-31852          
1 59841U 24097G   26183.81920046  .00000908  00000+0  42545-4 0  9999
2 59841  43.0037 336.4442 0001087 245.8481 114.2257 15.27556211119615
STARLINK-31906          
1 59842U 24097H   26183.82351599 -.00000265  00000+0 -11916-6 0  9990
2 59842  43.0036 344.2664 0001438 276.5522  83.5166 15.27569731119523
STARLINK-31857          
1 59843U 24097J   26183.72215416 -.00002154  00000+0 -68796-4 0  9992
2 59843  43.0039 344.3592 0001453 272.4045  87.6641 15.27566019119518
STARLINK-31851          
1 59844U 24097K   26183.80166164 -.00006484  00000+0 -22609-3 0  9999
2 59844  43.0006 344.1044 0001390 274.0764  85.9929 15.27612037119522
