OBJECT_NAME,OBJECT_ID,EPOCH,MEAN_MOTION,ECCENTRICITY,INCLINATION,RA_OF_ASC_NODE,ARG_OF_PERICENTER,MEAN_ANOMALY,EPHEMERIS_TYPE,CLASSIFICATION_TYPE,NORAD_CAT_ID,ELEMENT_SET_NO,REV_AT_EPOCH,BSTAR,MEAN_MOTION_DOT,MEAN_MOTION_DDOT
STARLINK-31870,2024-093F,2026-07-02T14:21:28.387008,15.27572260,.0001356,43.0043,279.5752,269.8640,90.2056,0,U,59787,999,12027,.61042E-4,.1418E-4,0
STARLINK-31888,2024-093G,2026-07-02T14:36:16.799328,15.27568135,.0001379,43.0007,279.6513,269.6280,90.4413,0,U,59788,999,12027,-.29892E-4,-.1084E-4,0
STARLINK-31863,2024-093H,2026-07-02T16:06:43.883136,15.27556448,.00014461,43.0002,279.2663,262.1275,97.9412,0,U,59789,999,12028,.30183219E-3,.8047E-4,0
STARLINK-31873,2024-093J,2026-07-02T14:47:22.888032,15.27566753,.0001272,43.0020,279.7082,285.3087,74.7624,0,U,59790,999,12027,-.17511E-4,-.744E-5,0
STARLINK-31865,2024-093K,2026-07-02T14:52:56.538912,15.27560680,.00009389,43.0012,279.7356,288.2095,71.8654,0,U,59791,999,12027,-.49273313E-4,-.1617E-4,0
STARLINK-31823,2024-093N,2026-07-02T16:32:37.224672,15.27582440,.00011729,43.0019,279.3938,262.6633,97.4086,0,U,59794,999,12028,.363768E-4,.739E-5,0
STARLINK-31916,2024-093P,2026-07-02T16:38:11.143392,15.27569452,.00010285,43.0024,279.4208,278.3820,81.6915,0,U,59795,999,12028,-.40868702E-4,-.1386E-4,0
STARLINK-31907,2024-093R,2026-07-02T18:16:01.409088,15.27582835,.00028774,42.9994,279.0732,265.8641,94.1881,0,U,59797,999,12029,.649488E-5,-.84E-6,0
STARLINK-31687,2024-093S,2026-07-02T17:18:53.190144,15.27579849,.00029258,43.0054,279.6328,266.1982,93.8535,0,U,59798,999,12028,-.10421168E-3,-.313E-4,0
STARLINK-31810,2024-093T,2026-07-01T23:42:48.499776,15.27573701,.00012055,43.0019,283.5895,263.4685,96.6030,0,U,59799,999,12017,-.10195111E-3,-.3066E-4,0
STARLINK-31812,2024-093U,2026-07-02T16:47:26.402496,15.27569061,.00019624,43.0033,279.4686,263.8023,96.2605,0,U,59800,999,12035,-.98270831E-4,-.2965E-4,0
STARLINK-31815,2024-093V,2026-07-02T16:52:59.263680,15.27570129,.00011897,43.0022,279.4977,257.2446,102.8272,0,U,59801,999,12028,-.47589481E-4,-.1571E-4,0
STARLINK-31814,2024-093W,2026-07-02T15:50:17.951136,15.27561424,.00010165,43.0048,280.0165,273.6549,86.4187,0,U,59802,999,12027,-.41971236E-4,-.1416E-4,0
STARLINK-31794,2024-093X,2026-07-02T15:35:28.713696,15.27574713,.00010661,43.0038,279.9552,271.8323,88.2406,0,U,59803,999,12034,-.3344774E-5,-.354E-5,0
STARLINK-31824,2024-093Y,2026-07-02T17:04:04.986912,15.27567541,.00011845,43.0016,279.5564,256.5592,103.5128,0,U,59804,999,12028,-.19677274E-4,-.803E-5,0
2024-094A,2024-094A,2026-07-03T12:35:26.649600,15.16945311,.00062533,97.3861,254.9125,133.5674,226.6080,0,U,59805,999,11764,.51619735E-3,.10129E-3,0
2024-094B,2024-094B,2026-07-03T16:38:02.912928,15.16926779,.00065741,97.3886,255.2991,80.6754,279.5223,0,U,59806,999,11766,.367893E-3,.7194E-4,0
2024-094C,2024-094C,2026-07-03T16:57:57.145824,15.17069555,.00042427,97.3911,255.4945,138.8708,221.2846,0,U,59807,999,11766,.35498647E-3,.6966E-4,0
2024-094D,2024-094D,2026-07-03T12:56:44.863296,15.16318118,.00028262,97.3833,254.7058,211.7888,148.3175,0,U,59808,999,11763,.45679962E-3,.8792E-4,0
2024-092K,2024-092K,2026-07-02T20:29:55.912704,15.37221958,.00079225,97.6594,317.3407,97.9636,262.2507,0,U,59809,999,11764,.66483856E-3,.24221E-3,0
2024-095A,2024-095A,2026-07-03T16:39:59.389632,15.11474027,.00019878,97.5341,263.3636,203.1755,156.9386,0,U,59810,999,11663,.37942281E-3,.6357E-4,0
STARLINK-31947,2024-097A,2026-07-02T19:08:51.355104,15.27568533,.00010918,43.0016,344.0808,268.2871,91.7856,0,U,59835,999,11952,-.15821369E-4,-.697E-5,0
STARLINK-31929,2024-097B,2026-07-02T20:06:12.870144,15.27553199,.00008098,43.0034,344.3725,249.1150,110.9615,0,U,59836,999,11952,.47771853E-4,.1052E-4,0
STARLINK-31927,2024-097C,2026-07-02T19:34:45.792192,15.27567316,.0001014,43.0024,344.2104,275.3445,84.7291,0,U,59837,999,11952,-.49244547E-4,-.1616E-4,0
STARLINK-31855,2024-097D,2026-07-02T19:03:17.470944,15.27581335,.00015278,43.0009,344.0368,265.5038,94.5639,0,U,59838,999,11952,.49683526E-3,.13435E-3,0
STARLINK-31887,2024-097E,2026-07-02T20:11:45.669984,15.27578511,.00010424,43.0026,344.4017,304.4715,55.6038,0,U,59839,999,11952,.62879681E-4,.1469E-4,0
STARLINK-31852,2024-097G,2026-07-02T19:39:38.919744,15.27556211,.00010879,43.0037,336.4442,245.8481,114.2257,0,U,59841,999,11961,.42544704E-4,.908E-5,0
STARLINK-31906,2024-097H,2026-07-02T19:45:51.781536,15.27569731,.00014386,43.0036,344.2664,276.5522,83.5166,0,U,59842,999,11952,-.119155E-6,-.265E-5,0
STARLINK-31857,2024-097J,2026-07-02T17:19:54.119424,15.27566019,.00014536,43.0039,344.3592,272.4045,87.6641,0,U,59843,999,11951,-.68796088E-4,-.2154E-4,0
STARLINK-31851,2024-097K,2026-07-02T19:14:23.565696,15.27612037,.000139,43.0006,344.1044,274.0764,85.9929,0,U,59844,999,11952,-.22609327E-3,-.6484E-4,0
